ONEWEB-0080             
1 45426U 20020C   25153.08284571 -.00000071  00000+0 -23626-3 0  9997
2 45426  87.8833  96.8246 0001921  92.1119 268.0229 13.11418630252894
ONEWEB-0090             
1 45427U 20020D   25153.10230159 -.00000578  00000+0 -16679-2 0  9995
2 45427  87.8839  96.8200 0002017  81.4915 278.6442 13.11418326252866
ONEWEB-0061             
1 45428U 20020E   25154.20253306  .00000531  00000+0  14615-2 0  9992
2 45428  87.8837  96.5843 0001972  81.3190 278.8161 13.11420566252957
ONEWEB-0081             
1 45429U 20020F   25153.80252790 -.00000542  00000+0 -15665-2 0  9994
2 45429  87.8837  96.6844 0001790  79.4138 280.7192 13.11418132253018
ONEWEB-0069             
1 45430U 20020G   25153.10485020 -.00000446  00000+0 -12953-2 0  9993
2 45430  87.8837  96.8135 0001948  77.7129 282.4217 13.11417637252869
ONEWEB-0031             
1 45431U 20020H   25154.22133252  .00000521  00000+0  14337-2 0  9995
2 45431  87.8842  96.6199 0002201  85.8108 274.3272 13.11415201252983
ONEWEB-0027             
1 45432U 20020J   25154.15742735 -.00000032  00000+0 -11506-3 0  9995
2 45432  87.9065  81.3090 0002343  77.7034 282.4360 13.17649587256443
ONEWEB-0064             
1 45433U 20020K   25153.07518871  .00000341  00000+0  92548-3 0  9994
2 45433  87.8836  96.8423 0002208  83.6730 276.4649 13.11416292252874
